COSMOS 2425 (716)       
1 29670U 06062A   18043.19548537  .00000001  00000-0  10000-3 0  9991
2 29670  65.3411 296.7621 0022743 346.7812 314.8482  2.13104805 86646
COSMOS 2426 (717)       
1 29671U 06062B   18043.12138277 -.00000000  00000-0  10000-3 0  9991
2 29671  65.3583 296.8592 0016115 163.5169 297.9077  2.13103001 86650
COSMOS 2433 (720)       
1 32275U 07052A   18042.81061640  .00000004  00000-0  10000-3 0  9992
2 32275  65.6288  57.5705 0005088 271.9863 286.1068  2.13104717 80153
COSMOS 2432 (719)       
1 32276U 07052B   18043.04612881  .00000005  00000-0  10000-3 0  9999
2 32276  65.6401  57.6383 0012870 325.6153   5.3940  2.13103904 80157
COSMOS 2434 (721)       
1 32393U 07065A   18043.06595800  .00000001  00000-0  00000+0 0  9997
2 32393  64.9564 295.8001 0003683  88.6204 193.8154  2.13102819 78866
COSMOS 2436 (723)       
1 32395U 07065C   18042.45447707 -.00000005  00000-0  10000-3 0  9993
2 32395  64.9658 295.8722 0016601   0.4790 222.7238  2.13104210 78781
COSMOS 2456 (730)       
1 36111U 09070A   18042.78616613 -.00000002  00000-0  00000-0 0  9994
2 36111  64.1843 175.3869 0003302 338.6493 261.0601  2.13102797 63527
COSMOS 2457 (733)       
1 36112U 09070B   18042.64440076 -.00000002  00000-0  00000-0 0  9998
2 36112  64.1665 175.3056 0006709 152.0715 106.3638  2.13101524 63525
COSMOS 2458 (734)       
1 36113U 09070C   18043.04834897 -.00000003  00000-0  10000-3 0  9997
2 36113  64.1715 175.3008 0002606  51.8331 204.7230  2.13102023 63538
COSMOS 2459 (731)       
1 36400U 10007A   18043.31605766  .00000005  00000-0  10000-3 0  9990
2 36400  65.5387  56.6294 0028004 346.9758  98.8353  2.13102171 61895
COSMOS 2461 (735)       
1 36401U 10007B   18042.65903624  .00000002  00000-0  10000-3 0  9998
2 36401  65.5298  56.6286 0004865  48.3497 164.0077  2.13102090 61877
COSMOS 2460 (732)       
1 36402U 10007C   18043.06634380  .00000004  00000-0  10000-3 0  9997
2 36402  65.5206  56.5829 0002502 285.8077 279.9110  2.13101657 61880
COSMOS 2464 (736)       
1 37139U 10041C   18043.11225817  .00000001  00000-0  00000+0 0  9992
2 37139  64.5597 295.6669 0025040  11.5427 174.1847  2.13102643 57955
COSMOS 2471 (701K)      
1 37372U 11009A   18042.62721389  .00000002  00000-0  00000-0 0  9998
2 37372  65.5179  56.5447 0009579 242.0514 128.0633  2.13107663 54153
COSMOS 2474 (742)       
1 37829U 11055A   18042.73009394 -.00000001  00000-0  00000-0 0  9993
2 37829  64.5084 176.0527 0006800 241.4793 173.9206  2.13101800 49524
COSMOS 2476 (744)       
1 37867U 11064A   18043.39521701 -.00000002  00000-0  00000+0 0  9999
2 37867  64.4880 176.0951 0016749 238.9457  12.7173  2.13101995 48887
COSMOS 2477 (745)       
1 37868U 11064B   18042.71095351 -.00000000  00000-0  00000+0 0  9990
2 37868  64.4961 176.1662 0014232 240.3296  25.3828  2.13101674 48826
COSMOS 2475 (743)       
1 37869U 11064C   18042.61967847  .00000000  00000-0  00000-0 0  9998
2 37869  64.5037 176.1623 0018478 269.0034 243.3087  2.13101866 48836
COSMOS 2485 (747)       
1 39155U 13019A   18042.66230385  .00000000  00000-0  00000-0 0  9995
2 39155  64.6570 176.2023 0016920 233.6580 220.6821  2.13101874 37344
COSMOS 2492 (754)       
1 39620U 14012A   18042.79587760  .00000002  00000-0  10000-3 0  9998
2 39620  65.4108  56.4955 0016348 323.2890 268.1062  2.13103400 30292
COSMOS 2500 (755)       
1 40001U 14032A   18042.73723675  .00000002  00000-0  00000+0 0  9991
2 40001  65.3523  56.4774 0007053 227.7100 181.2207  2.13102753 28519
COSMOS 2501 (702K)      
1 40315U 14075A   18042.78656351 -.00000005  00000-0  00000-0 0  9992
2 40315  64.2865 296.9376 0014451 209.9336  39.9131  2.13098399 24911
COSMOS 2514 (751)       
1 41330U 16008A   18042.55303242  .00000001  00000-0  00000-0 0  9996
2 41330  65.1530  56.5681 0010635 229.0157 219.2061  2.13103278 15672
COSMOS 2516 (753)       
1 41554U 16032A   18042.62269688 -.00000006  00000-0  00000-0 0  9990
2 41554  64.5056 296.7726 0010819 224.9484 168.2434  2.13101570 13280
COSMOS 2522 (752)       
1 42939U 17055A   18042.48197832 -.00000007  00000-0  00000-0 0  9990
2 42939  64.7363 296.7065 0006835 261.0446 250.5992  2.13101957  3035
